{"type":"FeatureCollection", "features": [
{"type":"Feature","geometry":{"type":"MultiPolygon","coordinates":[[[[108.95779428443296,10.52591538056333],[108.95779428492854,10.534271474482622],[108.95449075682747,10.539017911739816],[108.95567331274246,10.546006438240683],[108.95040903125228,10.552439925396898],[108.93048105213093,10.553472755609357],[108.9239960666113,10.549168823598635],[108.92237100522499,10.546241996562582],[108.92648324919945,10.539862869320949],[108.92826852608034,10.524970290693627],[108.93081674446219,10.519636388961212],[108.93138894802969,10.513940092875298],[108.94966897744226,10.503850216238028],[108.95923623791579,10.50327038226868],[108.9670334802304,10.507635349818568],[108.96596536487375,10.517814869495403],[108.96199807992039,10.51835274232075],[108.95779428443296,10.52591538056333]]],[[[107.66277320045808,10.608639065253893],[107.6687164991292,10.614377324495376],[107.68260962685076,10.62412578283618],[107.69802100439934,10.630528751256929],[107.70690924982009,10.632551493958672],[107.72750861534809,10.631387057010988],[107.73860938423427,10.636236490437225],[107.75507361894806,10.640468896128649],[107.76718909819749,10.648818315260453],[107.77452094567177,10.651193917697935],[107.7894974493743,10.667249024488406],[107.80677802886399,10.688059151816429],[107.82123573245596,10.70085650724202],[107.83103950552521,10.705024063543016],[107.83747871431964,10.705805122866856],[107.84469612162323,10.703694641321247],[107.86306007567269,10.71350318100214],[107.87014778253449,10.714058218366771],[107.883514483216,10.720259008780834],[107.8968811823109,10.722079572053476],[107.8995285828097,10.721267995297199],[107.92008980128706,10.719604785977618],[107.93467720298526,10.716017062435702],[107.96081550876205,10.705384546351139],[107.96380623244278,10.700943284477242],[107.96891029782245,10.705094629082426],[107.97352608097562,10.70624285191974],[107.98568733531562,10.703952125921722],[107.99259956771006,10.699352553569968],[107.99559028994587,10.70898657227821],[108.00000771009394,10.712538055997088],[108.0061264850062,10.72218923949999],[108.00805672309734,10.731440834380425],[108.01475533116974,10.736601165872406],[108.01789101435126,10.756549172606938],[108.01935585778605,10.76116686406864],[108.02626046094942,10.794972711408002],[108.0332566176285,10.819294268187601],[108.03798684381174,10.832712466554934],[108.04318246152134,10.844415957949145],[108.05998239013608,10.878673847608226],[108.07373056105622,10.900502498727434],[108.08114633360155,10.91041975737374],[108.09423837575618,10.917726810088102],[108.10654458885338,10.920233066020833],[108.10923013526326,10.917919451923867],[108.11462411793794,10.923911387685452],[108.12070474535939,10.927755648847649],[108.1370926858055,10.934625917995048],[108.13995370949858,10.932035737634816],[108.15181741733217,10.931269937430347],[108.15622720714558,10.92999582759278],[108.16571817481218,10.930771164772692],[108.17593393433307,10.936019234067384],[108.19018564347829,10.937152198837143],[108.19464121050895,10.94155054451209],[108.21320352884513,10.951398185300404],[108.22409830429675,10.954512884250251],[108.23410044054785,10.954385092303092],[108.25414286047919,10.94999532819746],[108.2705231711658,10.944946574462866],[108.27973947857134,10.940119074963565],[108.28225717899787,10.935465144288132],[108.28133402239288,10.928064630566034],[108.28305063556004,10.921791361091904],[108.28031168277658,10.918086335905464],[108.28240976539762,10.914862917246891],[108.28891001044008,10.912575051867716],[108.29386148812536,10.913783356070777],[108.29561624850888,10.929303452584573],[108.29837809046,10.939052865919416],[108.3016587308921,10.945724770957586],[108.30894480321,10.956059740081834],[108.3134461452842,10.959254549239775],[108.32376871674812,10.960045144730765],[108.327484231659,10.957954691040774],[108.33106241757267,10.951356217533498],[108.33660135852826,10.951301857561972],[108.3401719153452,10.958103463366736],[108.33985911101843,10.969043061435567],[108.34350596290612,10.986110970931335],[108.34764872476558,10.998984621570893],[108.35639201165574,11.016518877384632],[108.36277018648744,11.024243640030127],[108.36965952931057,11.028090761137387],[108.37705241355744,11.034002588275216],[108.38673411538787,11.034282968200495],[108.39281474303775,11.032068536728485],[108.4085770726783,11.03300504385424],[108.4121094819747,11.031237884592192],[108.41421519454389,11.026568695629342],[108.42234049990142,11.037701889642664],[108.4273835304816,11.042828841900898],[108.43454753340228,11.046940131889825],[108.44602214271838,11.047889991576174],[108.45850383174648,11.039349836181419],[108.46298228597868,11.041132253465362],[108.46688090776388,11.04531506982447],[108.4740067623739,11.048967641317494],[108.47750102563538,11.063707632354692],[108.4814530523931,11.077024740841155],[108.48873149686256,11.096991820745664],[108.49653636772882,11.114392563137484],[108.5091477582796,11.137044235697164],[108.51804363315016,11.147392555629667],[108.52258312371507,11.151134773365996],[108.53038799482718,11.154891295972945],[108.5370026802759,11.155858321716824],[108.54634105933577,11.160459799689123],[108.55806743871915,11.16289071521352],[108.56208812982855,11.16273812707733],[108.57102215149044,11.172421735700759],[108.5802308311024,11.17983464628598],[108.59418499507589,11.184512418393432],[108.61035168259815,11.183306019599417],[108.6157380343926,11.18077210678795],[108.61804211228547,11.175751010756226],[108.62316143523427,11.183717052593517],[108.62909710505106,11.187691967947572],[108.63671887030497,11.190110484967102],[108.64528668000982,11.190392771598258],[108.64854443242682,11.193127910185895],[108.66171276800259,11.193200387804055],[108.67913830531029,11.189255990037612],[108.69226849279619,11.184625901149916],[108.70246136373228,11.178243911786968],[108.70320141460402,11.170789039095409],[108.70722973537505,11.164924896271689],[108.71192944302857,11.175470626466572],[108.72440350359224,11.179953848799284],[108.7298356330423,11.184160506727538],[108.7331925670285,11.208950317683781],[108.7355424214355,11.215539253471269],[108.7395097067547,11.219418800949837],[108.74555218751955,11.231513297668736],[108.74610913496106,11.244769371721631],[108.75148022906897,11.258416451559722],[108.7511979413672,11.266832628341866],[108.75463117094912,11.27998379773651],[108.76068128138415,11.285919465341244],[108.77243054848942,11.289168634467481],[108.77680982189631,11.291614808801512],[108.78300489076852,11.308854379157003],[108.79165662523717,11.314650812400053],[108.79914869055231,11.314271248548412],[108.80919660416437,11.316614426534507],[108.81694806802201,11.321813858731737],[108.8233262418149,11.319479263594344],[108.82772840347933,11.319687165009473],[108.83276380374458,11.322663581669767],[108.83800519818408,11.323434150569792],[108.84523786399967,11.332273757781785],[108.85425580956407,11.334517752658162],[108.86086286507744,11.333525931425697],[108.87190259958376,11.333745276179888],[108.87651075450329,11.3403914321667],[108.87695325927844,11.35395268160331],[108.86921705293557,11.35349968762721],[108.86509718016097,11.35047081718081],[108.85784162614554,11.35429314474502],[108.84991468487699,11.362405098219998],[108.84554304186919,11.364457406126713],[108.84373487653578,11.376192369102595],[108.80354322493119,11.381708423400902],[108.78462995610201,11.387855809601147],[108.78334058786234,11.393447202120596],[108.75694288315125,11.411270424328684],[108.75874342199936,11.4344971625586],[108.76044477811764,11.44946031370857],[108.76161207605406,11.469661997576162],[108.75047316009952,11.470960901947068],[108.7249070584065,11.468450831597304],[108.71817793190455,11.462929058262452],[108.71311201373368,11.460685061871546],[108.70818342441613,11.461421299493484],[108.70520033168992,11.464736272105396],[108.68997205925407,11.468863774528272],[108.67940534811876,11.472458174587166],[108.67568220367929,11.478322317984755],[108.66413893081857,11.499790482025977],[108.65902723644598,11.503896050880572],[108.64296736319355,11.549798305170096],[108.64233412322777,11.550321872793884],[108.58270796640676,11.555481051438512],[108.58166517663828,11.560197173614316],[108.57756056245233,11.56501322945207],[108.57165541223537,11.578690826761758],[108.5668107462575,11.581139863252295],[108.55213179209223,11.601435960700615],[108.55447401610608,11.607199968680643],[108.55182661640906,11.611233058486357],[108.55378737136083,11.618697466561608],[108.55269636738764,11.620885196030091],[108.5531999084631,11.632322612337234],[108.55771651080387,11.635235133776336],[108.56243147737916,11.642301860565809],[108.57591261742049,11.63952476082944],[108.58462538693965,11.641468347941776],[108.59072127314153,11.646815600038952],[108.59724440530543,11.649082484249972],[108.60267653448683,11.648075403905926],[108.60732283538347,11.649813950950879],[108.61932387412045,11.651351273532043],[108.65809645849185,11.666859924639594],[108.66401686829967,11.666627227500618],[108.66961684504832,11.66361647719077],[108.6785737544427,11.669485389262139],[108.68668380077702,11.68301802824707],[108.68740096393203,11.68809825108812],[108.69321456410134,11.6984770882623],[108.70114913419415,11.700140296294958],[108.69486251379105,11.711286842932516],[108.69510665467979,11.71734648953212],[108.69008651328535,11.727585137644185],[108.69008651327289,11.7346823818669],[108.67327132826323,11.743155779210129],[108.66783156938637,11.746926608573629],[108.6631623810798,11.760970417273303],[108.67218032629994,11.779505077621486],[108.6718598927876,11.784942929479598],[108.6680375660724,11.788779561372467],[108.6644364917526,11.788029019390683],[108.65498367190048,11.792697255985118],[108.63705459423907,11.793440169033197],[108.6315385427383,11.795531577050118],[108.61944595117023,11.803690262454099],[108.61942306375532,11.80935413325555],[108.62520614491517,11.813138313157982],[108.6303483581837,11.830355950199598],[108.63934341380616,11.830223389486683],[108.64566818245251,11.83498985387826],[108.65288630765073,11.844109428714178],[108.65398422353482,11.85560447808994],[108.65086380202753,11.864450761475153],[108.65225998208372,11.873698542099524],[108.65559402723112,11.885718653219163],[108.65388504341098,11.895364115385028],[108.65636459754653,11.901940653505466],[108.66407028738054,11.915041278248838],[108.66140762798015,11.926541636724485],[108.66529862020522,11.938626598419104],[108.66504685050568,11.946800541545985],[108.6610261597282,11.951112104146686],[108.6619798347523,11.961689305344018],[108.6711808848933,11.974848104041135],[108.68133561058937,11.985139203593773],[108.68353287617848,11.995103192548605],[108.68294541395706,12.003920866278152],[108.67969529201638,12.011364294198405],[108.68346421383808,12.018499685375478],[108.68410508245117,12.02314503418388],[108.6916124069063,12.030894591939342],[108.69435898986512,12.040900542559214],[108.70307938828853,12.042090727425164],[108.70876328713814,12.048840834809852],[108.71231858580543,12.061249090967449],[108.71089188948866,12.067731216251612],[108.70753495581891,12.071526839734394],[108.70876328928264,12.07894928786265],[108.70291917291543,12.086238220805159],[108.70497910979269,12.089727715715528],[108.69937913495484,12.098069505690143],[108.68231217945318,12.1150973621949],[108.67404191546169,12.119451839452113],[108.67844407628881,12.12185128353817],[108.68558519016983,12.129197437633348],[108.69386308331157,12.130769092494818],[108.69683854797113,12.139315921328416],[108.69400041423364,12.146312076410299],[108.70327775754176,12.14954503274789],[108.70671098536882,12.154690105571827],[108.71528642492568,12.15544541543079],[108.72007768464829,12.154074985041332],[108.72767656263572,12.157751398320562],[108.72911851860222,12.162119228182522],[108.72507493891457,12.169219333714212],[108.72006242716084,12.173221904726299],[108.71905534687036,12.181591351135566],[108.71387498864735,12.188442547289204],[108.70970933920782,12.190878232311366],[108.71200578822564,12.199361166617443],[108.71833818548566,12.208896955348944],[108.71826952130444,12.21385033974071],[108.7217714140173,12.218038877270395],[108.71899431405164,12.22488244500113],[108.71384447368752,12.229233107471156],[108.70958727113116,12.230419478874873],[108.70175188260482,12.238468490555352],[108.69986742265637,12.246297204093688],[108.70489519387297,12.25209268223356],[108.70558946983307,12.255788169913055],[108.70267504061421,12.263344132015112],[108.7043306204971,12.27014192352957],[108.70203417190223,12.27454122316048],[108.7025987477549,12.283610666376475],[108.70124834494358,12.29065736633521],[108.70405596360689,12.294127787083143],[108.70504015420518,12.301284158566249],[108.70153063341061,12.307029092911153],[108.69359606384519,12.312512722264538],[108.6831514233236,12.317999210633854],[108.6773759702899,12.313278522780447],[108.67644518432478,12.308836307897622],[108.66857927818212,12.301242199653448],[108.66275804913826,12.297572461039476],[108.65201586106124,12.295111980670153],[108.64562242884068,12.294883099562147],[108.63710039447447,12.291496602653801],[108.62990587527928,12.291147558006479],[108.62403887071092,12.288717595706188],[108.62091844770498,12.283091871170546],[108.61091631138713,12.28336939014234],[108.59610765554567,12.276681272551762],[108.59075945091399,12.278779357045542],[108.58865373775981,12.282691329646564],[108.5897294825661,12.287940352750562],[108.5831071682108,12.28546461520195],[108.57237261023393,12.289800018597004],[108.56974046939027,12.295338006168237],[108.5648576558947,12.292119355236059],[108.55761736107486,12.292434067821672],[108.55237596719833,12.295805306945553],[108.55046098903546,12.292251916976692],[108.5454942529425,12.297115655987534],[108.54066484527623,12.29699835416978],[108.53611772651176,12.290753695241952],[108.53965776512534,12.284560534076084],[108.53142564758107,12.27908453564095],[108.52114885359869,12.280676218546652],[108.51508348432677,12.27798971869102],[108.50855272272797,12.277790400471334],[108.49892442691504,12.285112712928218],[108.49964159027533,12.292689654637105],[108.49447649057792,12.298824642422368],[108.49287431797434,12.304600094811633],[108.48111742086638,12.30290827719888],[108.47224443338992,12.288445806266854],[108.46967332833819,12.29470572391757],[108.4654771605502,12.297123288465993],[108.46651475828023,12.283293102650507],[108.46003740150306,12.275856350748757],[108.45502489022894,12.279009198440638],[108.45041673402753,12.27327761635282],[108.44133775507885,12.274474477434259],[108.44116227872051,12.263655996587284],[108.43956010556664,12.258701657754795],[108.43634049997569,12.257513379177816],[108.42991655004506,12.259302473116403],[108.4272615215491,12.257141446659734],[108.4272767802678,12.251723623560565],[108.41612260474292,12.24767050782677],[108.4125520475555,12.243500090195472],[108.40776078841736,12.244902944872152],[108.39974229407032,12.24243006766376],[108.39482133387138,12.24371276005012],[108.3874665973967,12.24108443376224],[108.38253037940679,12.245854713138552],[108.36990373181928,12.254128792471887],[108.36172502029781,12.253013947118605],[108.3560029746212,12.254820206556508],[108.3520204302923,12.253027299261715],[108.34735887010224,12.247799256911629],[108.33633439504034,12.24831805607699],[108.33560960125997,12.240787842961641],[108.33312241902819,12.236068108955672],[108.33856980699909,12.234799721403887],[108.34047715455769,12.22955737345587],[108.33200089742124,12.230771401607399],[108.32112900997161,12.223858217348939],[108.32238023043014,12.220091202855553],[108.31124894337903,12.218115190045209],[108.30039231375373,12.20852885644461],[108.2953340258918,12.208246568298517],[108.27802292948492,12.214411120637555],[108.2738191326074,12.210831980997813],[108.27211777684435,12.204651217274318],[108.26670090694789,12.203845362552295],[108.25978867541696,12.200517992910928],[108.26054398564429,12.192475658046982],[108.25268570799703,12.189051967152789],[108.2482835475055,12.17861018619857],[108.25475327358181,12.173523286848303],[108.24658219150832,12.168695787835619],[108.24636093885441,12.165345529801963],[108.23931900775462,12.162509303749813],[108.23803727004437,12.175975184812431],[108.23327652798419,12.175683360873176],[108.2254869163376,12.18151698702916],[108.2241212539069,12.172591548690246],[108.22046677387155,12.17458663583234],[108.2207490616508,12.179253917913766],[108.21794907374971,12.18348441709057],[108.21025101403966,12.179089886503991],[108.20930496959214,12.172565800118695],[108.2050782835074,12.170760495140929],[108.1993486092954,12.172337872480968],[108.19729630222551,12.177332264806603],[108.18492142347795,12.174209936447332],[108.18475357646099,12.178957327456336],[108.18120590902048,12.184699400524048],[108.17574326169905,12.184474332780873],[108.16847244920909,12.188296660784983],[108.1669694592989,12.195861206496296],[108.16310135671259,12.196558342707362],[108.15333573085354,12.188328132228715],[108.14044968231556,12.183222160667997],[108.13217178906294,12.181268081992094],[108.12428299419095,12.175563203238303],[108.12022415652552,12.175164567367649],[108.11286179112957,12.184357033871523],[108.11362473143413,12.193977701392537],[108.10635391881235,12.20507274967286],[108.09633652341496,12.21058117311693],[108.0945283573416,12.216778149740366],[108.08993546173417,12.219361652990163],[108.0861283940111,12.22501789599204],[108.08354965899846,12.235517850251348],[108.0856095954237,12.24066196958531],[108.07456223259037,12.251168600581307],[108.06976334419736,12.258615843919603],[108.06778733127646,12.264748923641296],[108.06031815477924,12.264397019188888],[108.05803696539772,12.268288963177762],[108.05149094418469,12.265797012022585],[108.04403702682916,12.276831979453895],[108.0440217676291,12.284646386437107],[108.03968827202578,12.289254541652285],[108.02503220499398,12.288668032318704],[108.01904312970002,12.291794176808233],[108.01600663134361,12.30257165115363],[108.00508896753483,12.296315547996112],[107.99976364990863,12.304037449688837],[107.99668137471778,12.30460774627197],[107.98821274657674,12.302016614182982],[107.98020188188362,12.297059414638387],[107.97377793133855,12.29699647366176],[107.97431961811482,12.305564283669577],[107.97113053162148,12.31096970969327],[107.96479813440916,12.314583182221092],[107.9524079977181,12.318812728114038],[107.9489137356479,12.324786544630875],[107.94346634767639,12.327876449461536],[107.94501511510606,12.331526162279197],[107.94306961939326,12.335990311588374],[107.93604294697312,12.339832665518982],[107.9337159824129,12.343194368056686],[107.93401352892171,12.350374582220628],[107.93090836571697,12.354518297437876],[107.9344636637476,12.36743867655097],[107.93260972112259,12.373454454972027],[107.92916886486437,12.375970248828244],[107.92838303702007,12.380278949031503],[107.92182175815849,12.380429629990143],[107.92038743150292,12.38572729117725],[107.9255525321023,12.38955915389389],[107.91680161660348,12.39156473136546],[107.9127961851548,12.398310071114286],[107.91266648460685,12.402928715706153],[107.91753403918351,12.4076112568379],[107.92610184932813,12.410235768210955],[107.92147080676455,12.413380986239975],[107.92421739042936,12.421141034815806],[107.9212724435866,12.426607495626648],[107.92577378622474,12.4276422324163],[107.92842118632471,12.423862820640538],[107.93203751988179,12.427816754989005],[107.94374864107215,12.436940556844599],[107.94487016209985,12.440484410647933],[107.95327775441115,12.44169652977756],[107.96564500368221,12.436356907208864],[107.97688310196374,12.443902378283859],[107.98425309746898,12.445868854370048],[107.98704545649277,12.455392245776991],[107.99195115709506,12.4563525956279],[107.99099748304263,12.46120870627489],[107.99465196358696,12.46633279807225],[107.99498002797506,12.470367794435305],[108.00112931990154,12.475151424366416],[107.99750535796824,12.481629735074295],[107.99771898076658,12.485489255393409],[107.99146287765302,12.485181218602595],[107.99153917197609,12.492033368909588],[107.98601549019801,12.495158559519913],[107.97949998647309,12.496351606212002],[107.97876756498519,12.501946813727686],[107.97370164735726,12.508514768848201],[107.96727769740927,12.511451133441645],[107.9539033697756,12.52092684239908],[107.949333361326,12.520201095415336],[107.94470231925155,12.52582777469998],[107.9399263187607,12.52743090144587],[107.93241136470034,12.524995217462822],[107.926864793872,12.52856386715731],[107.9150087151967,12.528627764285964],[107.91063707220589,12.525533091610479],[107.90487687844849,12.528476130028537],[107.90121477023527,12.532966983592974],[107.89344041745905,12.539133442395682],[107.88775651823224,12.539065731422447],[107.88617723348507,12.544581783648859],[107.8915864749683,12.551319492943755],[107.89546983690978,12.55286730602783],[107.89275377239657,12.563735378936746],[107.89574449589766,12.567251576171074],[107.90202348800736,12.56903780760726],[107.90798967401356,12.575422657661793],[107.92162340264618,12.58072413370826],[107.93093126502482,12.582252872392408],[107.93390672900925,12.586861980261773],[107.9342042761142,12.597909344663496],[107.9284746004013,12.600468052701059],[107.9278108433294,12.605072392902434],[107.92926042895797,12.614994420116155],[107.92798631945512,12.617570294926013],[107.92081468946384,12.619024648703551],[107.92267626244383,12.629492177996822],[107.91886919474912,12.635642424925157],[107.92057817835418,12.645342246295938],[107.91680925768678,12.64820613062428],[107.90800493643579,12.646048919523505],[107.90422838720012,12.651268379185513],[107.91455095845123,12.658801453025042],[107.91363543044673,12.664783852162314],[107.9085313654025,12.66848887807278],[107.90450304630558,12.675029175815972],[107.90816515520426,12.685180085248879],[107.91219347687888,12.69253959060747],[107.91082018633806,12.69547404654836],[107.90167254227495,12.706284899899664],[107.89534777481607,12.710828203773819],[107.89627093113607,12.719121356179926],[107.8991319546113,12.724718471474105],[107.90763110095422,12.731370348960295],[107.91028613026403,12.73683585764939],[107.90911120333081,12.743083377444497],[107.90301531729496,12.743878743121225],[107.89286822199486,12.747551343108075],[107.8897249116018,12.746655842940227],[107.86991137349256,12.752895735039106],[107.86737078580525,12.751805686194471],[107.86045092513966,12.756504439714341],[107.85552233592047,12.76459255246123],[107.85677355735811,12.772072219437229],[107.85353869468341,12.780584717194609],[107.85758990298481,12.788624192189857],[107.86193865867135,12.793205642799155],[107.86282366939542,12.799173737205093],[107.85901660077938,12.801215554466362],[107.8557054442431,12.806581880051846],[107.84871691791328,12.81206073922931],[107.84349841203598,12.810737993076891],[107.83675402794663,12.804719354922488],[107.82357806225501,12.800089265769978],[107.81674975403898,12.789959337788455],[107.81085986175904,12.789178278796177],[107.80288714271782,12.779893305274136],[107.79350298781162,12.781009104827305],[107.78160113191416,12.777909663501159],[107.77258318697137,12.779029278554734],[107.77037829185446,12.777691272167898],[107.74748247844782,12.780447392931743],[107.74306506002529,12.784420399870381],[107.73155230263842,12.781976133462258],[107.72450274214201,12.785200507087351],[107.70786303262845,12.786828429827858],[107.70594042480793,12.788002402734763],[107.68891924578116,12.78986969886774],[107.68660753881343,12.789062889430921],[107.67880266911662,12.793760689922136],[107.66544359905313,12.795967492827984],[107.66108721483918,12.798498545655573],[107.6430055479858,12.795495425085196],[107.63830584160921,12.798287784472398],[107.63450640395858,12.80371419197419],[107.62131518033792,12.799683010388552],[107.6129915101059,12.798945820108253],[107.60800951520896,12.794892704584685],[107.60221880453707,12.798218166808368],[107.60108965447736,12.802331364856679],[107.59001177273375,12.794724857938458],[107.57880419342682,12.795664228554747],[107.5757753226281,12.797869123992134],[107.56282824006828,12.796504416279134],[107.56043260946387,12.795238890951708],[107.56303423327583,12.787225165125623],[107.5591432417646,12.785249151590179],[107.55951708201147,12.778621114605],[107.56235521670139,12.77403394090143],[107.55985277407707,12.769243634407921],[107.55889909944892,12.759190953387847],[107.56028002048868,12.745527661777139],[107.56393450053376,12.746185696234415],[107.56347673542587,12.736152087865623],[107.56735246789725,12.731489574553468],[107.56747453874054,12.727430736273833],[107.55892198610958,12.715103541650423],[107.55965440777976,12.70743981478499],[107.56720750803642,12.702439699458443],[107.56988542515688,12.692352686266899],[107.57435624993242,12.688883219024621],[107.58159654538025,12.679668817390446],[107.57617204530472,12.675467880593668],[107.57634752068601,12.670627984118259],[107.57087724524715,12.667426499321646],[107.57115953274659,12.660871895591336],[107.56911485413148,12.654849441626022],[107.57361619725485,12.650001915019486],[107.56924455383303,12.647736938291649],[107.5689775243811,12.642531784344825],[107.57228868258457,12.639220627049443],[107.57119767800972,12.635730178830258],[107.57368486048209,12.630388648278773],[107.57318132035851,12.624882132214616],[107.57839982635458,12.621855170092335],[107.58391587871064,12.613526731377972],[107.58105485556212,12.610584645842952],[107.5820619347591,12.60580864511492],[107.5854493860897,12.602885632674843],[107.58115403654693,12.591386227808647],[107.5818864576819,12.589229016557017],[107.5790712105648,12.580820470396233],[107.57952134533373,12.575439839252514],[107.58260362032173,12.566638378028788],[107.58916489899701,12.559510616129165],[107.58844773529412,12.555566218817427],[107.58291642462574,12.551574137955452],[107.57563035195746,12.541726496754478],[107.5772630423627,12.534835245837531],[107.57119004396912,12.529249575670487],[107.56807725111673,12.529620555707515],[107.56233994558141,12.521912959741579],[107.56250779228284,12.5157655739548],[107.56886307717862,12.511944200382414],[107.56705491083379,12.507756616836748],[107.57277695645824,12.498667146019647],[107.57903305924278,12.496212388175541],[107.57877365976883,12.488691711941161],[107.57633225377671,12.484802627884962],[107.57517258588196,12.477502250581498],[107.56874863527015,12.475729371030017],[107.56491104922972,12.469628716308138],[107.56702439090982,12.466031456808874],[107.56450669062289,12.45565548006914],[107.56494156605035,12.449472808055964],[107.56166855477889,12.447021865765928],[107.55879990238876,12.438887977042022],[107.5545121820462,12.432990455608588],[107.55452744098324,12.428382300957374],[107.55002609712524,12.41858520483575],[107.54347244676963,12.414981268950926],[107.54236618425296,12.411092185933576],[107.54505936004507,12.407418631191307],[107.5443727150663,12.398700139816757],[107.5456773410011,12.392966649651935],[107.55298630065813,12.382166288301267],[107.553260959504,12.376749417634581],[107.54511276452116,12.372389219148406],[107.54781357082655,12.368317983233828],[107.54727951262605,12.360013386547966],[107.5432054153286,12.34981383894645],[107.53659835941765,12.351498029113024],[107.53525558657785,12.346470257811294],[107.52794662605456,12.343924901219163],[107.52623764079371,12.339380642313907],[107.52091995276135,12.339739224795249],[107.51599899323948,12.33656825814238],[107.51238265993162,12.329638859510743],[107.50524917527984,12.32712020619157],[107.50291458029204,12.324328802126878],[107.48275008938909,12.317633055047015],[107.47548690678279,12.312280080731652],[107.46739211801548,12.31042899958978],[107.46655288449648,12.301059148778988],[107.45692458788523,12.293226622007426],[107.44396224645693,12.291518591833764],[107.44313827080396,12.277657888810102],[107.4391480974653,12.274740599480234],[107.43786635828019,12.270287893558192],[107.44154372612635,12.266210935774797],[107.44100966939398,12.262730977694119],[107.43634047889076,12.25758113699451],[107.43621077990093,12.253901861275464],[107.43035140414146,12.249761960325783],[107.42164626485594,12.250370405942974],[107.41643538772273,12.243848227251805],[107.41482558587902,12.251328848183585],[107.39852156985742,12.260019683856198],[107.39476790822128,12.264489555481862],[107.38697829681765,12.270113373054343],[107.3882066296935,12.284613991801512],[107.38330092904073,12.287386324035339],[107.38125625164301,12.292623903337201],[107.377632289166,12.295704271531083],[107.3785554457565,12.300091173921146],[107.37514510677437,12.305228616919639],[107.36669173799238,12.312005428203985],[107.36446395578388,12.317537693014389],[107.35401168469436,12.32238617390363],[107.34947982470645,12.326609998017105],[107.34657302439854,12.333701520628956],[107.34286514013363,12.332614331731342],[107.33794417900309,12.326218991507135],[107.32730117423921,12.325973898025262],[107.32111373435173,12.322094351611037],[107.31267562378109,12.322096258713934],[107.31248488970039,12.32971039514786],[107.30874648637928,12.332890899489627],[107.30265822883463,12.327946098007594],[107.29187789488572,12.327925117498138],[107.28612533005683,12.322780998115269],[107.28158584101813,12.32182541731827],[107.27451339210936,12.324669273526997],[107.26854720441908,12.324676903834948],[107.26221480698719,12.31437912771781],[107.24980178212358,12.311261567590858],[107.247070458456,12.306598100096235],[107.23643508211013,12.300808343724881],[107.22930159782734,12.295508775512989],[107.21968856083633,12.296120081643581],[107.20722975936347,12.299297724941836],[107.20632186095455,12.29545060292976],[107.22097792353887,12.202536016797053],[107.22414412075008,12.181022076852756],[107.2295381006903,12.135084536676274],[107.22169508273542,12.125927355661435],[107.22669996542193,12.122971918772178],[107.22833265552208,12.115616229005482],[107.24011244062098,12.114367868134387],[107.23639692528171,12.10433330729554],[107.2317506240129,12.098751450668155],[107.23311628477002,12.089983368047335],[107.22939314006152,12.08615722714556],[107.23029340748046,12.075504685262274],[107.2330247309646,12.06121482842893],[107.23162092159829,12.052510643092717],[107.23415388058899,12.044265173181081],[107.23208631434507,12.041200064461627],[107.23226941925184,12.029550932039385],[107.23678602081633,12.037001990062814],[107.2455140479258,12.034808538972626],[107.2425767318956,12.026458166491773],[107.24678052774895,12.026987455156387],[107.25232709702824,12.020996472420256],[107.26212323906054,12.017578503100406],[107.26594556620586,12.01743545173011],[107.26969159937705,12.013990779710836],[107.27959455341211,12.012905498180753],[107.28367627983397,12.018062969027332],[107.28923047848511,12.0156597092119],[107.29093183363754,12.01885261100855],[107.29596723367435,12.015928644788909],[107.29459394294423,12.01237716140214],[107.29862989295661,12.009148020012036],[107.30286420703595,12.010359186272382],[107.3095628147904,12.005658525298761],[107.31414045187188,12.008062737958182],[107.31784833768567,12.00498999909866],[107.32231916338458,12.004747766198694],[107.32427991793725,11.99980963919652],[107.33201612338135,11.99463118840806],[107.34394086605907,11.978472128927729],[107.34431470730652,11.974966421504545],[107.35688794838184,11.952241315403784],[107.35427106410927,11.941909207185914],[107.35945142363524,11.934283627195589],[107.36866010328978,11.931989085476765],[107.36952222420398,11.927952182455133],[107.37525189899776,11.923509967239955],[107.38134778616471,11.922712694943149],[107.38648999754027,11.915838610258927],[107.38614667484319,11.912085901329453],[107.39493573636184,11.896438966428267],[107.40117658046489,11.889737495950948],[107.40050519393628,11.88380564132733],[107.40599072864276,11.875311263267875],[107.40540326463405,11.868465789402595],[107.41256726538228,11.864118941059738],[107.41861737599775,11.865427381580194],[107.42366040635771,11.862284071766537],[107.42629254636259,11.857144719725929],[107.4270478561005,11.844537144670676],[107.42169202143312,11.844791775658917],[107.41396344320893,11.833287602260654],[107.41357434427009,11.826810246058248],[107.40848553770773,11.82364404766471],[107.40464032177687,11.814993268026512],[107.40960705804262,11.80690324780807],[107.400489931036,11.798085575811578],[107.39311230601116,11.794924145123353],[107.39285290614306,11.78891695118456],[107.397087220572,11.785420780208902],[107.39734661949859,11.77675569510286],[107.39579022128724,11.770679836333134],[107.39122784469033,11.76663434881027],[107.38684857142152,11.773036365626286],[107.37193310502198,11.770171528905628],[107.36454785034195,11.765222912040425],[107.36264050162958,11.761071568315893],[107.35648358007695,11.761950856849575],[107.35655224406118,11.757084255970529],[107.35300457625884,11.752732640283647],[107.34381115527907,11.751119977329841],[107.33567059136213,11.747943289045798],[107.32531750174286,11.749078161936406],[107.31524670019132,11.740394956604309],[107.30108654372061,11.739400275759719],[107.29695141181837,11.729981787001703],[107.28970348788398,11.729751952389137],[107.28540813676395,11.724066146890218],[107.28572857191588,11.713920958081527],[107.28385173934709,11.69826162535319],[107.2788163389795,11.693083173662057],[107.28489696592078,11.68752229918594],[107.27851879138743,11.6819709598055],[107.27236949893036,11.67053449765773],[107.26657115852072,11.662306195662843],[107.26645671721056,11.657004719350189],[107.27282726165394,11.651130086406347],[107.26873027675312,11.641427403143135],[107.27259837907415,11.635805492557244],[107.28782665078089,11.630946521033305],[107.30442058444298,11.617517831450401],[107.30075847296816,11.60597360444603],[107.30655681341563,11.598562600719728],[107.29732524559819,11.585800530413477],[107.30067454918759,11.577412011101233],[107.31204997554431,11.57162892937148],[107.31070720307876,11.568663001305707],[107.30522166754763,11.571811080376602],[107.30171214664338,11.570588470382651],[107.31004344431767,11.555229544370166],[107.31170665214384,11.553623557726125],[107.32740794600895,11.55465829313002],[107.3327180051145,11.5541499843187],[107.33853160355488,11.544144032793007],[107.346618762592,11.544281361669537],[107.347030749842,11.55207192633516],[107.35421000978222,11.555522320119113],[107.35655223423485,11.558955548906319],[107.35613261860964,11.569537518898786],[107.35753642696768,11.58005368600381],[107.36041270931469,11.582044004027308],[107.3663712659272,11.573157666247994],[107.36113750171484,11.569504139404609],[107.36625682416846,11.561622021116104],[107.3604813732212,11.55491578281909],[107.36427318226372,11.553738949289801],[107.36959849870485,11.548735973349999],[107.37457286422442,11.550587054051936],[107.37850963213754,11.544006701806795],[107.37843333778754,11.539832468278133],[107.37539683821778,11.533042307536867],[107.37606822485903,11.523869868162127],[107.36700450304046,11.517862673384275],[107.37245952041958,11.514932985297657],[107.38016520852831,11.519615525972146],[107.38538371471408,11.52061211523081],[107.38612376742434,11.525414820172779],[107.39283000421655,11.527202005672054],[107.39833079810025,11.526766175606788],[107.40165721448408,11.52974736121173],[107.40965281960328,11.528436058444802],[107.41366588117624,11.516340607119236],[107.42021953132408,11.51114784918228],[107.42617808870193,11.517270438817308],[107.43039714331677,11.519039504725841],[107.43289958413447,11.515526168524968],[107.44120799536032,11.510885588083339],[107.44836436722781,11.504411092450972],[107.45292674532318,11.50198685274865],[107.45487986955375,11.492395749072937],[107.46186076557598,11.489335407980576],[107.46708690071294,11.482189526342506],[107.46649180853504,11.477646221365621],[107.46099101420947,11.471983303384288],[107.46208201768172,11.462952960706321],[107.45085154810991,11.458620418284523],[107.44578562934244,11.447514880366093],[107.4407578582662,11.44634949066224],[107.4370728597226,11.442900050941995],[107.43064890956462,11.440512051534757],[107.43042765685374,11.424899447795939],[107.43721018788152,11.430819857305265],[107.44172679018249,11.431853640482505],[107.44618998598838,11.429462778792207],[107.44346629227283,11.420141565425244],[107.45368205061851,11.420118677003227],[107.45212565541773,11.424620973903936],[107.45420847944425,11.43205391148735],[107.46079264763534,11.43144451357237],[107.46549235541805,11.434313165262624],[107.47491465720384,11.436313974047765],[107.47914134237985,11.430875169802233],[107.48432933062671,11.430453644751363],[107.48873912024858,11.423264847696327],[107.48538981484027,11.405495033338328],[107.48763676710676,11.396328662561528],[107.49572001436418,11.396451338237958],[107.49709330495897,11.386850698871227],[107.50582133249529,11.383348806050046],[107.51297007545003,11.384580952787468],[107.51890574353372,11.370688778006514],[107.52483378423211,11.37058959594207],[107.52612315080582,11.36575255921057],[107.53454600205143,11.355623583819579],[107.54337321155647,11.359872202284567],[107.54133616307787,11.34122691628216],[107.53555308108389,11.333197931934485],[107.53512583455749,11.324741701523601],[107.52972422277755,11.3193038502701],[107.52536020977851,11.31887088149833],[107.51929483984597,11.313855508657074],[107.51869211798372,11.305673936214413],[107.52407084036302,11.299521783186782],[107.52364524778704,11.294013960934391],[107.51838694039022,11.284113266715849],[107.52332315825572,11.273125030890037],[107.52416239087945,11.251829482387219],[107.51628122550518,11.250820495215999],[107.51463327641557,11.245043136654141],[107.50945291715861,11.243875839528345],[107.50840006090017,11.238124229126997],[107.50141153497472,11.236367561519367],[107.5008393309158,11.242135383528206],[107.49702463342254,11.242556908465223],[107.49584970652174,11.23751292510043],[107.49938974491319,11.230220176887551],[107.49830637141882,11.227213241230396],[107.48928842553417,11.224868156935147],[107.48513803554351,11.221287109509863],[107.48815927504943,11.216149665473734],[107.47904214862282,11.208238937582115],[107.48419198936836,11.205063201033786],[107.48255929830653,11.200790740377428],[107.47405252462754,11.20208010864534],[107.4760743129684,11.195382453691314],[107.47087869503078,11.192334510203601],[107.47145089926232,11.185469962407174],[107.46651468103687,11.18024764179102],[107.46092996377605,11.17685542202676],[107.46009835917872,11.171587325166064],[107.4621430370775,11.168255186769338],[107.45750436449315,11.161253310706215],[107.4547501531019,11.159907675719134],[107.45809182771664,11.153010702411299],[107.45629128993896,11.149522162544166],[107.4453736264554,11.146068907596527],[107.44293984932867,11.139593458595982],[107.43472299120631,11.136512138163472],[107.43569192398907,11.130368567509453],[107.43960580215219,11.125324583610517],[107.44394692839826,11.12524828876588],[107.45083627125332,11.118061399308568],[107.45396432343199,11.110945081087536],[107.44873818798071,11.102559423299299],[107.44929513254495,11.099401806400584],[107.44620522832491,11.091485356955513],[107.43894967222293,11.087998722893365],[107.4318009301537,11.087781285470525],[107.43200692270598,11.082509374296674],[107.42276772611586,11.073746060801861],[107.42623910042767,11.067457531761015],[107.42456826265193,11.061721180669137],[107.41835030558248,11.05647501898539],[107.41506203574387,11.050135945833578],[107.40944680239762,11.050622318571314],[107.40065773914498,11.053879117560351],[107.39868935470912,11.050316190369141],[107.40512093452662,11.04593119489201],[107.40612038573849,11.04284796571581],[107.41834267609309,11.042340611437838],[107.42070778760807,11.037093494686818],[107.42657479141856,11.036642406550316],[107.42819222317765,11.03332838681177],[107.4426880734728,11.030636164815045],[107.44725808024506,11.028408381475948],[107.44910439376572,11.02140745649448],[107.45652016546686,11.016714425050463],[107.4651718984568,11.015841812933859],[107.46883400789719,11.010510773205729],[107.47431954179797,11.006748528126463],[107.48738869516518,11.009087890078947],[107.49566658924431,11.014303534082334],[107.50075539533225,11.015222876314052],[107.50603493613454,11.013671247209539],[107.50920876494266,11.007028906303228],[107.51795967957925,11.000720349796248],[107.5272522828893,10.99590143247392],[107.5353394404804,10.985195484277844],[107.53698738847777,10.977556552462447],[107.54273995329396,10.978268946720258],[107.56024178220721,10.936552368403046],[107.56050880846013,10.907395682260564],[107.55965431491103,10.86736234038745],[107.57353981214538,10.84724839385245],[107.57712562720431,10.832725840519721],[107.57270820615683,10.816963511595935],[107.57017524733696,10.811030703325331],[107.56147773723244,10.799791651472257],[107.55451972881173,10.793424921710201],[107.54518134900056,10.788895922910738],[107.53970344397628,10.783916788693743],[107.52204139367116,10.773538906466047],[107.50499732608523,10.771433194369944],[107.50251014308786,10.763173419549707],[107.50740821368906,10.755965549080573],[107.50544745882875,10.747629481714716],[107.51122291126269,10.743664103681224],[107.51251990793388,10.74017937754565],[107.51831824776512,10.735475855232355],[107.52588660660217,10.731614427438895],[107.52819831364374,10.723999337042295],[107.53500373337096,10.721371964818163],[107.54420478179117,10.7060778886179],[107.5436046525434,10.698690913590212],[107.54656226475315,10.695368124850585],[107.540673384873,10.683141198748068],[107.53895575708842,10.676188780347182],[107.5437241284864,10.672960592091787],[107.54543267163841,10.66347663229073],[107.55554968926907,10.64614708378141],[107.55700690213081,10.639225315420616],[107.55961615527545,10.637523959726977],[107.56324774711466,10.630029033446464],[107.56231696075398,10.627764056351952],[107.56819159454103,10.619062731905098],[107.56357581086651,10.61850578626343],[107.56362158618676,10.614444087090583],[107.56987769033913,10.60761482392699],[107.57136542173754,10.60094577964745],[107.56797796999393,10.585547753090012],[107.56964117775097,10.579409905579894],[107.56616980285264,10.577446289840497],[107.5707169207172,10.568414993303355],[107.58297735875104,10.57528717062374],[107.6233978937908,10.594812697125585],[107.64719397604549,10.60223228171844],[107.66277320045808,10.608639065253893]]],[[[108.83177197814648,11.225511821626355],[108.83034528100688,11.228883060271537],[108.82304395088725,11.22852352491727],[108.82127393032654,11.225569996225708],[108.82941449488635,11.22192409861572],[108.83177197814648,11.225511821626355]]],[[[108.96346292283415,10.49480461473997],[108.96455392537845,10.485073322144329],[108.96874246414328,10.493667835247681],[108.96346292283415,10.49480461473997]]]]},"properties":{"Ma":"26","Cap":1,"STT":19,"TinhThanh":"Lâm Đồng","SapNhap":"Lâm Đồng, Đắk Nông, Bình Thuận","SoXa":124,"Loai":"Tỉnh","Dtich_km2":24243.7,"DanSo_ng":3872999,"MD_ngkm2":159.8}}
]}